$$SOE
2460721.500000000, A.D. 2025-Feb-15 00:00:00.0000, 2.626183522009724E+08, -1.525016158500193E+08, -2.937220007297985E+06,
2460728.500000000, A.D. 2025-Feb-22 00:00:00.0000, 2.709044551821231E+08, -1.419560193105261E+08, -1.630441773214065E+06,
2460735.500000000, A.D. 2025-Mar-01 00:00:00.0000, 2.787310069564732E+08, -1.311695632959490E+08, -3.208897804025337E+05,
2460742.500000000, A.D. 2025-Mar-08 00:00:00.0000, 2.860948027165218E+08, -1.201652860725146E+08, 9.892022595875710E+05,
2460749.500000000, A.D. 2025-Mar-15 00:00:00.0000, 2.929938927201676E+08, -1.089657721193568E+08, 2.297694160961315E+06,
2460756.500000000, A.D. 2025-Mar-22 00:00:00.0000, 2.994274976147086E+08, -9.759308815338218E+07, 3.602541859616373E+06,
2460763.500000000, A.D. 2025-Mar-29 00:00:00.0000, 3.053959244931082E+08, -8.606873165428501E+07, 4.901798740203995E+06,
2460770.500000000, A.D. 2025-Apr-05 00:00:00.0000, 3.109004850493946E+08, -7.441358812345901E+07, 6.193616020795148E+06,
2460777.500000000, A.D. 2025-Apr-12 00:00:00.0000, 3.159434147976938E+08, -6.264789628103672E+07, 7.476242480242725E+06,
2460784.500000000, A.D. 2025-Apr-19 00:00:00.0000, 3.205277939082292E+08, -5.079122135024511E+07, 8.748023570840767E+06,
2460791.500000000, A.D. 2025-Apr-26 00:00:00.0000, 3.246574705316259E+08, -3.886243588027236E+07, 1.000739996807363E+07,
2460798.500000000, A.D. 2025-May-03 00:00:00.0000, 3.283369871961342E+08, -2.687970733564299E+07, 1.125290563662015E+07,
2460805.500000000, A.D. 2025-May-10 00:00:00.0000, 3.315715106615484E+08, -1.486049170501376E+07, 1.248316549265955E+07,
2460812.500000000, A.D. 2025-May-17 00:00:00.0000, 3.343667655193098E+08, -2.821532458813059E+06, 1.369689273113509E+07,
2460819.500000000, A.D. 2025-May-24 00:00:00.0000, 3.367289718748763E+08, 9.221135764608223E+06, 1.489288586580250E+07,
2460826.500000000, A.D. 2025-May-31 00:00:00.0000, 3.386647876105254E+08, 2.125217968826208E+07, 1.607002552963980E+07,
2460833.500000000, A.D. 2025-Jun-07 00:00:00.0000, 3.401812548416956E+08, 3.325695793886349E+07, 1.722727122482844E+07,
2460840.500000000, A.D. 2025-Jun-14 00:00:00.0000, 3.412857481738311E+08, 4.522150948114930E+07, 1.836365823404999E+07,
2460847.500000000, A.D. 2025-Jun-21 00:00:00.0000, 3.419859259050075E+08, 5.713253716121374E+07, 1.947829435653565E+07,
2460854.500000000, A.D. 2025-Jun-28 00:00:00.0000, 3.422896871852631E+08, 6.897738856443122E+07, 2.057035636111610E+07,
2460861.500000000, A.D. 2025-Jul-05 00:00:00.0000, 3.422051334732257E+08, 8.074403674272247E+07, 2.163908650197202E+07,
2460868.500000000, A.D. 2025-Jul-12 00:00:00.0000, 3.417405329407483E+08, 9.242106035758966E+07, 2.268378916646904E+07,
2460875.500000000, A.D. 2025-Jul-19 00:00:00.0000, 3.409042878417836E+08, 1.039976229704674E+08, 2.370382761167514E+07,
2460882.500000000, A.D. 2025-Jul-26 00:00:00.0000, 3.397049048694553E+08, 1.154634516899760E+08, 2.469862078177023E+07,
2460889.500000000, A.D. 2025-Aug-02 00:00:00.0000, 3.381509683726850E+08, 1.268088154296153E+08, 2.566764021406499E+07,
2460896.500000000, A.D. 2025-Aug-09 00:00:00.0000, 3.362511162609770E+08, 1.380245029648414E+08, 2.661040703962307E+07,
2460903.500000000, A.D. 2025-Aug-16 00:00:00.0000, 3.340140184867265E+08, 1.491018009038734E+08, 2.752648907451432E+07,
2460910.500000000, A.D. 2025-Aug-23 00:00:00.0000, 3.314483582210045E+08, 1.600324717381765E+08, 2.841549798353067E+07,
2460917.500000000, A.D. 2025-Aug-30 00:00:00.0000, 3.285628158813349E+08, 1.708087328057194E+08, 2.927708654944852E+07,
2460924.500000000, A.D. 2025-Sep-06 00:00:00.0000, 3.253660544227951E+08, 1.814232372628188E+08, 3.011094626183856E+07,
2460931.500000000, A.D. 2025-Sep-13 00:00:00.0000, 3.218667040612664E+08, 1.918690546638499E+08, 3.091680517759682E+07,
2460938.500000000, A.D. 2025-Sep-20 00:00:00.0000, 3.180733495547899E+08, 2.021396495663995E+08, 3.169442561871943E+07,
2460945.500000000, A.D. 2025-Sep-27 00:00:00.0000, 3.139945209548839E+08, 2.122288613173707E+08, 3.244360186191975E+07,
2460952.500000000, A.D. 2025-Oct-04 00:00:00.0000, 3.096386856714983E+08, 2.221308855946130E+08, 3.316415804631095E+07,
2460959.500000000, A.D. 2025-Oct-11 00:00:00.0000, 3.050142413505182E+08, 2.318402567871315E+08, 3.385594625352946E+07,
2460966.500000000, A.D. 2025-Oct-18 00:00:00.0000, 3.001295097299244E+08, 2.413518309556293E+08, 3.451884470847338E+07,
2460973.500000000, A.D. 2025-Oct-25 00:00:00.0000, 2.949927315048767E+08, 2.506607693920570E+08, 3.515275608476530E+07,
2460980.500000000, A.D. 2025-Nov-01 00:00:00.0000, 2.896120621394112E+08, 2.597625227944905E+08, 3.575760590807593E+07,
2460987.500000000, A.D. 2025-Nov-08 00:00:00.0000, 2.839955685646542E+08, 2.686528160216947E+08, 3.633334104672730E+07,
2460994.500000000, A.D. 2025-Nov-15 00:00:00.0000, 2.781512268240573E+08, 2.773276333614117E+08, 3.687992826636916E+07,
2461001.500000000, A.D. 2025-Nov-22 00:00:00.0000, 2.720869209893427E+08, 2.857832045228667E+08, 3.739735282517911E+07,
2461008.500000000, A.D. 2025-Nov-29 00:00:00.0000, 2.658104431226862E+08, 2.940159924746872E+08, 3.788561721166517E+07,
2461015.500000000, A.D. 2025-Dec-06 00:00:00.0000, 2.593294919393855E+08, 3.020226829747553E+08, 3.834474021802589E+07,
2461022.500000000, A.D. 2025-Dec-13 00:00:00.0000, 2.526516705442258E+08, 3.098001724086059E+08, 3.877475603080204E+07,
2461029.500000000, A.D. 2025-Dec-20 00:00:00.0000, 2.457844866869474E+08, 3.173455549441234E+08, 3.917571309912053E+07,
2461036.500000000, A.D. 2025-Dec-27 00:00:00.0000, 2.387353544162893E+08, 3.246561115710405E+08, 3.954767308647911E+07,
2461043.500000000, A.D. 2026-Jan-03 00:00:00.0000, 2.315115956279664E+08, 3.317293003872761E+08, 3.989070998556055E+07,
2461050.500000000, A.D. 2026-Jan-10 00:00:00.0000, 2.241204415758529E+08, 3.385627474321630E+08, 4.020490932693499E+07,
2461057.500000000, A.D. 2026-Jan-17 00:00:00.0000, 2.165690345426241E+08, 3.451542379541600E+08, 4.049036744939353E+07,
2461064.500000000, A.D. 2026-Jan-24 00:00:00.0000, 2.088644297149400E+08, 3.515017081151096E+08, 4.074719082332250E+07,
2461071.500000000, A.D. 2026-Jan-31 00:00:00.0000, 2.010135972569128E+08, 3.576032371034869E+08, 4.097549542125145E+07,
2461078.500000000, A.D. 2026-Feb-07 00:00:00.0000, 1.930234246165808E+08, 3.634570395798297E+08, 4.117540612236609E+07,
2461085.500000000, A.D. 2026-Feb-14 00:00:00.0000, 1.849007192944629E+08, 3.690614584206657E+08, 4.134705612392256E+07,
2461092.500000000, A.D. 2026-Feb-21 00:00:00.0000, 1.766522124411378E+08, 3.744149583209216E+08, 4.149058636885567E+07,
2461099.500000000, A.D. 2026-Feb-28 00:00:00.0000, 1.682845621816790E+08, 3.795161213900311E+08, 4.160614518079077E+07,
2461106.500000000, A.D. 2026-Mar-07 00:00:00.0000, 1.598043545897520E+08, 3.843636427710250E+08, 4.169388813311668E+07,
2461113.500000000, A.D. 2026-Mar-14 00:00:00.0000, 1.512181050693504E+08, 3.889563239356822E+08, 4.175397770550266E+07,
2461120.500000000, A.D. 2026-Mar-21 00:00:00.0000, 1.425322619169577E+08, 3.932930665421178E+08, 4.178658279998055E+07,
2461127.500000000, A.D. 2026-Mar-28 00:00:00.0000, 1.337532100454508E+08, 3.973728678670341E+08, 4.179187838287088E+07,
2461134.500000000, A.D. 2026-Apr-04 00:00:00.0000, 1.248872742560888E+08, 4.011948168305119E+08, 4.177004522702417E+07,
2461141.500000000, A.D. 2026-Apr-11 00:00:00.0000, 1.159407223237656E+08, 4.047580902376584E+08, 4.172126969791502E+07,
2461148.500000000, A.D. 2026-Apr-18 00:00:00.0000, 1.069197680463194E+08, 4.080619492147926E+08, 4.164574356646395E+07,
2461155.500000000, A.D. 2026-Apr-25 00:00:00.0000, 9.783057429476391E+07, 4.111057358407114E+08, 4.154366384393334E+07,
2461162.500000000, A.D. 2026-May-02 00:00:00.0000, 8.867925608656204E+07, 4.138888699324193E+08, 4.141523263271374E+07,
2461169.500000000, A.D. 2026-May-09 00:00:00.0000, 7.947188379994245E+07, 4.164108459113859E+08, 4.126065697587520E+07,
2461176.500000000, A.D. 2026-May-16 00:00:00.0000, 7.021448690322220E+07, 4.186712298829103E+08, 4.108014868207142E+07,
2461183.500000000, A.D. 2026-May-23 00:00:00.0000, 6.091305824941526E+07, 4.206696579459037E+08, 4.087392420434108E+07,
2461190.500000000, A.D. 2026-May-30 00:00:00.0000, 5.157355685814985E+07, 4.224058360451441E+08, 4.064220478853181E+07,
2461197.500000000, A.D. 2026-Jun-06 00:00:00.0000, 4.220190886528178E+07, 4.238795380805994E+08, 4.038521665137810E+07,
2461204.500000000, A.D. 2026-Jun-13 00:00:00.0000, 3.280401030104135E+07, 4.250906024664290E+08, 4.010319086762592E+07,
2461211.500000000, A.D. 2026-Jun-20 00:00:00.0000, 2.338573119473802E+07, 4.260389300629790E+08, 3.979636325066668E+07,
2461218.500000000, A.D. 2026-Jun-27 00:00:00.0000, 1.395291930713946E+07, 4.267244831356322E+08, 3.946497435352212E+07,
2461225.500000000, A.D. 2026-Jul-04 00:00:00.0000, 4.511403488410707E+06, 4.271472845598093E+08, 3.910926952593616E+07,
2461232.500000000, A.D. 2026-Jul-11 00:00:00.0000, -4.933003086291338E+06, 4.273074171362524E+08, 3.872949899283013E+07,
2461239.500000000, A.D. 2026-Jul-18 00:00:00.0000, -1.437449971221731E+07, 4.272050230394160E+08, 3.832591794715881E+07,
2461246.500000000, A.D. 2026-Jul-25 00:00:00.0000, -2.380729495807210E+07, 4.268403033994521E+08, 3.789878665467778E+07,
2461253.500000000, A.D. 2026-Aug-01 00:00:00.0000, -3.322560342960198E+07, 4.262135179680212E+08, 3.744837056190592E+07,
2461260.500000000, A.D. 2026-Aug-08 00:00:00.0000, -4.262364227992693E+07, 4.253249848310130E+08, 3.697494038438606E+07,
2461267.500000000, A.D. 2026-Aug-15 00:00:00.0000, -5.199562705302563E+07, 4.241750806186521E+08, 3.647877217390171E+07,
2461274.500000000, A.D. 2026-Aug-22 00:00:00.0000, -6.133576762262713E+07, 4.227642424364482E+08, 3.596014753433681E+07,
2461281.500000000, A.D. 2026-Aug-29 00:00:00.0000, -7.063826651472825E+07, 4.210929701457258E+08, 3.541935408377123E+07,
2461288.500000000, A.D. 2026-Sep-05 00:00:00.0000, -7.989731748087825E+07, 4.191618261231297E+08, 3.485668573249215E+07,
2461295.500000000, A.D. 2026-Sep-12 00:00:00.0000, -8.910710187175770E+07, 4.169714349974293E+08, 3.427244275622955E+07,
$$EOE